{
  "name": "SATGUS",
  "line1": "1 62713U 25009DJ  26038.21192653  .00008501  00000+0  70005-3 0  9991",
  "line2": "2 62713  97.7118 120.7722 0002849 205.9921 154.1159 14.99326643 58079",
  "fetched_at": "2026-02-08T00:31:34.816336+00:00"
}